{"type": "FeatureCollection", "features": [ {"type": "Feature", "properties": {"norad_id": 33799, "name": "COSMOS 2251 DEB", "group": "cosmos-2251-debris", "lat": 73.9007360449208, "lon": 179.8137891913263, "alt_km": 615.3336311229514, "timestamp": "2025-12-12T07:43:20.908255+00:00", "meta": {"OBJECT_NAME": "COSMOS 2251 DEB", "OBJECT_ID": "1993-036AQ", "EPOCH": "2025-12-11T23:43:17.279616", "MEAN_MOTION": 14.79570676, "ECCENTRICITY": 0.0023484, "INCLINATION": 74.0315, "RA_OF_ASC_NODE": 83.2662, "ARG_OF_PERICENTER": 154.1792, "MEAN_ANOMALY": 323.0751, "EPHEMERIS_TYPE": 0, "CLASSIFICATION_TYPE": "U", "NORAD_CAT_ID": 33799, "ELEMENT_SET_NO": 999, "REV_AT_EPOCH": 88800, "BSTAR": 0.0017875245, "MEAN_MOTION_DOT": 0.00013442, "MEAN_MOTION_DDOT": 0}, "tle": {"line1": "1 33799U 93036AQ  25345.98839444  .00013442  00000+0  17875-2 0  9993", "line2": "2 33799  74.0315  83.2662 0023484 154.1792 323.0751 14.79570676888007"}}, "geometry": {"type": "Point", "coordinates": [179.8137891913263, 73.9007360449208]}}, {"type": "Feature", "properties": {"norad_id": 33805, "name": "COSMOS 2251 DEB", "group": "cosmos-2251-debris", "lat": -71.26648534299972, "lon": -170.26930319041273, "alt_km": 727.4048750187612, "timestamp": "2025-12-12T07:43:20.908266+00:00", "meta": {"OBJECT_NAME": "COSMOS 2251 DEB", "OBJECT_ID": "1993-036AW", "EPOCH": "2025-12-11T23:57:00.865152", "MEAN_MOTION": 14.57853001, "ECCENTRICITY": 0.00602333, "INCLINATION": 74.0307, "RA_OF_ASC_NODE": 312.7419, "ARG_OF_PERICENTER": 141.9521, "MEAN_ANOMALY": 218.5921, "EPHEMERIS_TYPE": 0, "CLASSIFICATION_TYPE": "U", "NORAD_CAT_ID": 33805, "ELEMENT_SET_NO": 999, "REV_AT_EPOCH": 89216, "BSTAR": 0.00037413375, "MEAN_MOTION_DOT": 1.727e-05, "MEAN_MOTION_DDOT": 0}, "tle": {"line1": "1 33805U 93036AW  25345.99792668  .00001727  00000+0  37413-3 0  9992", "line2": "2 33805  74.0307 312.7419 0060233 141.9521 218.5921 14.57853001892164"}}, "geometry": {"type": "Point", "coordinates": [-170.26930319041273, -71.26648534299972]}}, {"type": "Feature", "properties": {"norad_id": 33811, "name": "COSMOS 2251 DEB", "group": "cosmos-2251-debris", "lat": 53.162258576729805, "lon": -33.700935112159584, "alt_km": 527.4877512166431, "timestamp": "2025-12-12T07:43:20.908277+00:00", "meta": {"OBJECT_NAME": "COSMOS 2251 DEB", "OBJECT_ID": "1993-036BC", "EPOCH": "2025-12-11T23:47:03.219936", "MEAN_MOTION": 15.0523387, "ECCENTRICITY": 0.0030604, "INCLINATION": 73.8382, "RA_OF_ASC_NODE": 304.209, "ARG_OF_PERICENTER": 24.8229, "MEAN_ANOMALY": 39.8995, "EPHEMERIS_TYPE": 0, "CLASSIFICATION_TYPE": "U", "NORAD_CAT_ID": 33811, "ELEMENT_SET_NO": 999, "REV_AT_EPOCH": 90007, "BSTAR": 0.001599047, "MEAN_MOTION_DOT": 0.00023111, "MEAN_MOTION_DDOT": 0}, "tle": {"line1": "1 33811U 93036BC  25345.99100949  .00023111  00000+0  15990-2 0  9990", "line2": "2 33811  73.8382 304.2090 0030604  24.8229  39.8995 15.05233870900070"}}, "geometry": {"type": "Point", "coordinates": [-33.700935112159584, 53.162258576729805]}}, {"type": "Feature", "properties": {"norad_id": 33815, "name": "COSMOS 2251 DEB", "group": "cosmos-2251-debris", "lat": 68.57304047107225, "lon": -49.71413377862055, "alt_km": 507.0437601827971, "timestamp": "2025-12-12T07:43:20.908287+00:00", "meta": {"OBJECT_NAME": "COSMOS 2251 DEB", "OBJECT_ID": "1993-036BG", "EPOCH": "2025-12-10T00:34:36.803712", "MEAN_MOTION": 15.1696459, "ECCENTRICITY": 0.00027751, "INCLINATION": 73.9523, "RA_OF_ASC_NODE": 182.2836, "ARG_OF_PERICENTER": 231.9732, "MEAN_ANOMALY": 286.9539, "EPHEMERIS_TYPE": 0, "CLASSIFICATION_TYPE": "U", "NORAD_CAT_ID": 33815, "ELEMENT_SET_NO": 999, "REV_AT_EPOCH": 88329, "BSTAR": 0.0073023687, "MEAN_MOTION_DOT": 0.00147157, "MEAN_MOTION_DDOT": 0}, "tle": {"line1": "1 33815U 93036BG  25344.02403708  .00147157  00000+0  73024-2 0  9995", "line2": "2 33815  73.9523 182.2836 0002775 231.9732 286.9539 15.16964590883297"}}, "geometry": {"type": "Point", "coordinates": [-49.71413377862055, 68.57304047107225]}}, {"type": "Feature", "properties": {"norad_id": 33816, "name": "COSMOS 2251 DEB", "group": "cosmos-2251-debris", "lat": 5.583059643227437, "lon": -75.51363809446671, "alt_km": 844.4119368277488, "timestamp": "2025-12-12T07:43:20.908299+00:00", "meta": {"OBJECT_NAME": "COSMOS 2251 DEB", "OBJECT_ID": "1993-036BH", "EPOCH": "2025-12-11T11:47:39.911424", "MEAN_MOTION": 13.81781196, "ECCENTRICITY": 0.02647437, "INCLINATION": 73.8948, "RA_OF_ASC_NODE": 107.5116, "ARG_OF_PERICENTER": 120.6874, "MEAN_ANOMALY": 242.0628, "EPHEMERIS_TYPE": 0, "CLASSIFICATION_TYPE": "U", "NORAD_CAT_ID": 33816, "ELEMENT_SET_NO": 999, "REV_AT_EPOCH": 84656, "BSTAR": 0.00078196, "MEAN_MOTION_DOT": 1.071e-05, "MEAN_MOTION_DDOT": 0}, "tle": {"line1": "1 33816U 93036BH  25345.49143416  .00001071  00000+0  78196-3 0  9995", "line2": "2 33816  73.8948 107.5116 0264743 120.6874 242.0628 13.81781196846565"}}, "geometry": {"type": "Point", "coordinates": [-75.51363809446671, 5.583059643227437]}}, {"type": "Feature", "properties": {"norad_id": 33818, "name": "COSMOS 2251 DEB", "group": "cosmos-2251-debris", "lat": 1.336954064649033, "lon": 167.48704767752648, "alt_km": 548.3097275906694, "timestamp": "2025-12-12T07:43:20.908318+00:00", "meta": {"OBJECT_NAME": "COSMOS 2251 DEB", "OBJECT_ID": "1993-036BK", "EPOCH": "2025-12-11T22:53:20.347008", "MEAN_MOTION": 15.12395934, "ECCENTRICITY": 0.00272383, "INCLINATION": 74.0763, "RA_OF_ASC_NODE": 167.8656, "ARG_OF_PERICENTER": 157.0445, "MEAN_ANOMALY": 1.4813, "EPHEMERIS_TYPE": 0, "CLASSIFICATION_TYPE": "U", "NORAD_CAT_ID": 33818, "ELEMENT_SET_NO": 999, "REV_AT_EPOCH": 89850, "BSTAR": 0.0027476643, "MEAN_MOTION_DOT": 0.00048421, "MEAN_MOTION_DDOT": 0}, "tle": {"line1": "1 33818U 93036BK  25345.95370772  .00048421  00000+0  27477-2 0  9990", "line2": "2 33818  74.0763 167.8656 0027238 157.0445   1.4813 15.12395934898508"}}, "geometry": {"type": "Point", "coordinates": [167.48704767752648, 1.336954064649033]}}, {"type": "Feature", "properties": {"norad_id": 33819, "name": "COSMOS 2251 DEB", "group": "cosmos-2251-debris", "lat": -61.99044315786245, "lon": 62.81500324964344, "alt_km": 854.6530899472145, "timestamp": "2025-12-12T07:43:20.908329+00:00", "meta": {"OBJECT_NAME": "COSMOS 2251 DEB", "OBJECT_ID": "1993-036BL", "EPOCH": "2025-12-12T00:22:49.719072", "MEAN_MOTION": 14.3221869, "ECCENTRICITY": 0.00890701, "INCLINATION": 74.1789, "RA_OF_ASC_NODE": 211.1551, "ARG_OF_PERICENTER": 72.7005, "MEAN_ANOMALY": 37.0755, "EPHEMERIS_TYPE": 0, "CLASSIFICATION_TYPE": "U", "NORAD_CAT_ID": 33819, "ELEMENT_SET_NO": 999, "REV_AT_EPOCH": 87485, "BSTAR": 0.00097120826, "MEAN_MOTION_DOT": 2.711e-05, "MEAN_MOTION_DDOT": 0}, "tle": {"line1": "1 33819U 93036BL  25346.01585323  .00002711  00000+0  97121-3 0  9995", "line2": "2 33819  74.1789 211.1551 0089070  72.7005  37.0755 14.32218690874858"}}, "geometry": {"type": "Point", "coordinates": [62.81500324964344, -61.99044315786245]}}, {"type": "Feature", "properties": {"norad_id": 33821, "name": "COSMOS 2251 DEB", "group": "cosmos-2251-debris", "lat": 34.57533197392425, "lon": -47.66283812708773, "alt_km": 457.63229646595664, "timestamp": "2025-12-12T07:43:20.908339+00:00", "meta": {"OBJECT_NAME": "COSMOS 2251 DEB", "OBJECT_ID": "1993-036BN", "EPOCH": "2025-12-11T20:04:25.275360", "MEAN_MOTION": 15.25222892, "ECCENTRICITY": 0.00520936, "INCLINATION": 74.0302, "RA_OF_ASC_NODE": 144.7462, "ARG_OF_PERICENTER": 178.6235, "MEAN_ANOMALY": 181.5119, "EPHEMERIS_TYPE": 0, "CLASSIFICATION_TYPE": "U", "NORAD_CAT_ID": 33821, "ELEMENT_SET_NO": 999, "REV_AT_EPOCH": 74987, "BSTAR": 0.0016744057, "MEAN_MOTION_DOT": 0.00043955, "MEAN_MOTION_DDOT": 0}, "tle": {"line1": "1 33821U 93036BN  25345.83640365  .00043955  00000+0  16744-2 0  9991", "line2": "2 33821  74.0302 144.7462 0052093 178.6235 181.5119 15.25222892749873"}}, "geometry": {"type": "Point", "coordinates": [-47.66283812708773, 34.57533197392425]}}, {"type": "Feature", "properties": {"norad_id": 33822, "name": "COSMOS 2251 DEB", "group": "cosmos-2251-debris", "lat": 70.82887529496536, "lon": -40.81486923037555, "alt_km": 926.0263236285509, "timestamp": "2025-12-12T07:43:20.908350+00:00", "meta": {"OBJECT_NAME": "COSMOS 2251 DEB", "OBJECT_ID": "1993-036BP", "EPOCH": "2025-12-12T01:01:47.524224", "MEAN_MOTION": 14.13064474, "ECCENTRICITY": 0.01533875, "INCLINATION": 74.0696, "RA_OF_ASC_NODE": 194.9123, "ARG_OF_PERICENTER": 241.4163, "MEAN_ANOMALY": 242.4911, "EPHEMERIS_TYPE": 0, "CLASSIFICATION_TYPE": "U", "NORAD_CAT_ID": 33822, "ELEMENT_SET_NO": 999, "REV_AT_EPOCH": 86044, "BSTAR": 0.001868134, "MEAN_MOTION_DOT": 3.877e-05, "MEAN_MOTION_DDOT": 0}, "tle": {"line1": "1 33822U 93036BP  25346.04291116  .00003877  00000+0  18681-2 0  9993", "line2": "2 33822  74.0696 194.9123 0153387 241.4163 242.4911 14.13064474860448"}}, "geometry": {"type": "Point", "coordinates": [-40.81486923037555, 70.82887529496536]}}, {"type": "Feature", "properties": {"norad_id": 33823, "name": "COSMOS 2251 DEB", "group": "cosmos-2251-debris", "lat": -50.63688716521557, "lon": 129.31990477971752, "alt_km": 772.8004513175447, "timestamp": "2025-12-12T07:43:20.908360+00:00", "meta": {"OBJECT_NAME": "COSMOS 2251 DEB", "OBJECT_ID": "1993-036BQ", "EPOCH": "2025-12-11T22:26:29.901120", "MEAN_MOTION": 13.98946683, "ECCENTRICITY": 0.02093278, "INCLINATION": 73.8087, "RA_OF_ASC_NODE": 150.7405, "ARG_OF_PERICENTER": 276.03, "MEAN_ANOMALY": 242.4311, "EPHEMERIS_TYPE": 0, "CLASSIFICATION_TYPE": "U", "NORAD_CAT_ID": 33823, "ELEMENT_SET_NO": 999, "REV_AT_EPOCH": 85598, "BSTAR": 0.0010690343, "MEAN_MOTION_DOT": 1.835e-05, "MEAN_MOTION_DDOT": 0}, "tle": {"line1": "1 33823U 93036BQ  25345.93506830  .00001835  00000+0  10690-2 0  9997", "line2": "2 33823  73.8087 150.7405 0209327 276.0300 242.4311 13.98946683855986"}}, "geometry": {"type": "Point", "coordinates": [129.31990477971752, -50.63688716521557]}}]}